{
  "type": "FeatureCollection",
  "features": [
    {
      "type": "Feature",
      "properties": {
        "norad_id": 64694,
        "name": "GOSAT-GW (IBUKI GW)",
        "group": "resource",
        "lat": -49.86591300807842,
        "lon": -58.15053861311204,
        "alt_km": 676.4543908523056,
        "timestamp": "2025-12-22T20:43:45.500787+00:00",
        "meta_object_name": "GOSAT-GW (IBUKI GW)",
        "meta_object_id": "2025-141A",
        "meta_epoch": "2025-12-22T14:24:49.949568",
        "meta_mean_motion": 14.6756369,
        "meta_eccentricity": 0.00014309,
        "meta_inclination": 98.0437,
        "meta_ra_of_asc_node": 291.9352,
        "meta_arg_of_pericenter": 84.4297,
        "meta_mean_anomaly": 275.7071,
        "meta_ephemeris_type": 0,
        "meta_classification_type": "U",
        "meta_norad_cat_id": 64694,
        "meta_element_set_no": 999,
        "meta_rev_at_epoch": 2594,
        "meta_bstar": 0.00016405229,
        "meta_mean_motion_dot": 8.83e-06,
        "meta_mean_motion_ddot": 0,
        "tle_line1": "1 64694U 25141A   25356.60057812  .00000883  00000+0  16405-3 0  9999",
        "tle_line2": "2 64694  98.0437 291.9352 0001430  84.4297 275.7071 14.67563690 25941"
      },
      "geometry": {
        "type": "Point",
        "coordinates": [
          -58.15053861311204,
          -49.86591300807842
        ]
      }
    },
    {
      "type": "Feature",
      "properties": {
        "norad_id": 64876,
        "name": "IONOSFERA-M 3",
        "group": "resource",
        "lat": 71.74501372508246,
        "lon": -68.79461452831178,
        "alt_km": 812.3371733877148,
        "timestamp": "2025-12-22T20:43:45.500797+00:00",
        "meta_object_name": "IONOSFERA-M 3",
        "meta_object_id": "2025-155A",
        "meta_epoch": "2025-12-22T15:18:54.872640",
        "meta_mean_motion": 14.21443313,
        "meta_eccentricity": 0.00019381,
        "meta_inclination": 98.5797,
        "meta_ra_of_asc_node": 318.2247,
        "meta_arg_of_pericenter": 43.7908,
        "meta_mean_anomaly": 316.3423,
        "meta_ephemeris_type": 0,
        "meta_classification_type": "U",
        "meta_norad_cat_id": 64876,
        "meta_element_set_no": 999,
        "meta_rev_at_epoch": 2132,
        "meta_bstar": 5.2413667e-05,
        "meta_mean_motion_dot": 7.2e-07,
        "meta_mean_motion_ddot": 0,
        "tle_line1": "1 64876U 25155A   25356.63813510  .00000072  00000+0  52414-4 0  9995",
        "tle_line2": "2 64876  98.5797 318.2247 0001938  43.7908 316.3423 14.21443313 21323"
      },
      "geometry": {
        "type": "Point",
        "coordinates": [
          -68.79461452831178,
          71.74501372508246
        ]
      }
    },
    {
      "type": "Feature",
      "properties": {
        "norad_id": 64877,
        "name": "IONOSFERA-M 4",
        "group": "resource",
        "lat": -72.39664750712608,
        "lon": 109.95122195608609,
        "alt_km": 828.6614662543288,
        "timestamp": "2025-12-22T20:43:45.500807+00:00",
        "meta_object_name": "IONOSFERA-M 4",
        "meta_object_id": "2025-155B",
        "meta_epoch": "2025-12-22T14:28:02.166240",
        "meta_mean_motion": 14.21444452,
        "meta_eccentricity": 0.00013568,
        "meta_inclination": 98.5795,
        "meta_ra_of_asc_node": 318.1097,
        "meta_arg_of_pericenter": 54.0306,
        "meta_mean_anomaly": 306.0998,
        "meta_ephemeris_type": 0,
        "meta_classification_type": "U",
        "meta_norad_cat_id": 64877,
        "meta_element_set_no": 999,
        "meta_rev_at_epoch": 2131,
        "meta_bstar": 4.8571163e-05,
        "meta_mean_motion_dot": 6.3e-07,
        "meta_mean_motion_ddot": 0,
        "tle_line1": "1 64877U 25155B   25356.60280285  .00000063  00000+0  48571-4 0  9999",
        "tle_line2": "2 64877  98.5795 318.1097 0001356  54.0306 306.0998 14.21444452 21312"
      },
      "geometry": {
        "type": "Point",
        "coordinates": [
          109.95122195608609,
          -72.39664750712608
        ]
      }
    },
    {
      "type": "Feature",
      "properties": {
        "norad_id": 64899,
        "name": "MICROCARB",
        "group": "resource",
        "lat": 81.92895031035924,
        "lon": -25.242423684478833,
        "alt_km": 635.6380998849863,
        "timestamp": "2025-12-22T20:43:45.500817+00:00",
        "meta_object_name": "MICROCARB",
        "meta_object_id": "2025-156A",
        "meta_epoch": "2025-12-22T04:00:16.111296",
        "meta_mean_motion": 14.72071696,
        "meta_eccentricity": 0.00175613,
        "meta_inclination": 98.0014,
        "meta_ra_of_asc_node": 71.3608,
        "meta_arg_of_pericenter": 116.4521,
        "meta_mean_anomaly": 243.8491,
        "meta_ephemeris_type": 0,
        "meta_classification_type": "U",
        "meta_norad_cat_id": 64899,
        "meta_element_set_no": 999,
        "meta_rev_at_epoch": 2192,
        "meta_bstar": 0.00011167733,
        "meta_mean_motion_dot": 6.54e-06,
        "meta_mean_motion_ddot": 0,
        "tle_line1": "1 64899U 25156A   25356.16685314  .00000654  00000+0  11168-3 0  9994",
        "tle_line2": "2 64899  98.0014  71.3608 0017561 116.4521 243.8491 14.72071696 21923"
      },
      "geometry": {
        "type": "Point",
        "coordinates": [
          -25.242423684478833,
          81.92895031035924
        ]
      }
    },
    {
      "type": "Feature",
      "properties": {
        "norad_id": 64900,
        "name": "CO3D 3",
        "group": "resource",
        "lat": 80.44323841615547,
        "lon": 22.23040849139262,
        "alt_km": 496.8938088200648,
        "timestamp": "2025-12-22T20:43:45.500827+00:00",
        "meta_object_name": "CO3D 3",
        "meta_object_id": "2025-156B",
        "meta_epoch": "2025-12-22T14:02:32.609760",
        "meta_mean_motion": 15.20209843,
        "meta_eccentricity": 0.00013345,
        "meta_inclination": 97.4341,
        "meta_ra_of_asc_node": 72.8113,
        "meta_arg_of_pericenter": 76.6298,
        "meta_mean_anomaly": 283.5086,
        "meta_ephemeris_type": 0,
        "meta_classification_type": "U",
        "meta_norad_cat_id": 64900,
        "meta_element_set_no": 999,
        "meta_rev_at_epoch": 2270,
        "meta_bstar": 0.00027936979,
        "meta_mean_motion_dot": 5.986e-05,
        "meta_mean_motion_ddot": 0,
        "tle_line1": "1 64900U 25156B   25356.58509965  .00005986  00000+0  27937-3 0  9994",
        "tle_line2": "2 64900  97.4341  72.8113 0001334  76.6298 283.5086 15.20209843 22707"
      },
      "geometry": {
        "type": "Point",
        "coordinates": [
          22.23040849139262,
          80.44323841615547
        ]
      }
    },
    {
      "type": "Feature",
      "properties": {
        "norad_id": 64901,
        "name": "CO3D 4",
        "group": "resource",
        "lat": 79.88529869034758,
        "lon": 26.03683406276375,
        "alt_km": 497.64915626650236,
        "timestamp": "2025-12-22T20:43:45.500837+00:00",
        "meta_object_name": "CO3D 4",
        "meta_object_id": "2025-156C",
        "meta_epoch": "2025-12-22T14:02:45.782304",
        "meta_mean_motion": 15.20216995,
        "meta_eccentricity": 0.00013522,
        "meta_inclination": 97.434,
        "meta_ra_of_asc_node": 72.8115,
        "meta_arg_of_pericenter": 164.5243,
        "meta_mean_anomaly": 195.6034,
        "meta_ephemeris_type": 0,
        "meta_classification_type": "U",
        "meta_norad_cat_id": 64901,
        "meta_element_set_no": 999,
        "meta_rev_at_epoch": 2270,
        "meta_bstar": 0.00028418606,
        "meta_mean_motion_dot": 6.092e-05,
        "meta_mean_motion_ddot": 0,
        "tle_line1": "1 64901U 25156C   25356.58525211  .00006092  00000+0  28419-3 0  9992",
        "tle_line2": "2 64901  97.4340  72.8115 0001352 164.5243 195.6034 15.20216995 22708"
      },
      "geometry": {
        "type": "Point",
        "coordinates": [
          26.03683406276375,
          79.88529869034758
        ]
      }
    },
    {
      "type": "Feature",
      "properties": {
        "norad_id": 64902,
        "name": "CO3D 2",
        "group": "resource",
        "lat": -81.32310718395165,
        "lon": -165.8398977955228,
        "alt_km": 513.125498455739,
        "timestamp": "2025-12-22T20:43:45.500847+00:00",
        "meta_object_name": "CO3D 2",
        "meta_object_id": "2025-156D",
        "meta_epoch": "2025-12-22T13:14:44.819232",
        "meta_mean_motion": 15.20201445,
        "meta_eccentricity": 8.17e-05,
        "meta_inclination": 97.4339,
        "meta_ra_of_asc_node": 72.6774,
        "meta_arg_of_pericenter": 67.9044,
        "meta_mean_anomaly": 292.2278,
        "meta_ephemeris_type": 0,
        "meta_classification_type": "U",
        "meta_norad_cat_id": 64902,
        "meta_element_set_no": 999,
        "meta_rev_at_epoch": 2269,
        "meta_bstar": 0.00019395038,
        "meta_mean_motion_dot": 4.133e-05,
        "meta_mean_motion_ddot": 0,
        "tle_line1": "1 64902U 25156D   25356.55190763  .00004133  00000+0  19395-3 0  9997",
        "tle_line2": "2 64902  97.4339  72.6774 0000817  67.9044 292.2278 15.20201445 22692"
      },
      "geometry": {
        "type": "Point",
        "coordinates": [
          -165.8398977955228,
          -81.32310718395165
        ]
      }
    }
  ]
}